P/2017 TW13 (Lemmon),e,44.8849,322.1161,120.0255,7.137715,0.0516851,0.71064078,133.6673,07/23.0/2025,2000,g 15.0,2.0
# From MPEC 2022-K19
P/2017 U3 (PANSTARRS),e,15.9228,165.0551,296.4767,4.919395,0.0903309,0.10086915,206.7153,07/23.0/2025,2000,g 11.0,4.0
# From MPEC 2023-A50
C/2017 U7 (PANSTARRS),h,09/16.2425/2019,142.6397,276.3215,326.4121,1.002718,6.418437,2000,8.3,2.0
# From MPC114601
P/2017 W3 (Gibbs),e,18.1895,210.0620,327.7735,7.818111,0.0450870,0.50710272,121.8808,07/23.0/2025,2000,g 10.5,4.0
# From MPEC 2024-DC6
C/2017 Y2 (PANSTARRS),h,11/04.8887/2020,128.4476,66.0284,147.7989,1.001021,4.620751,2000,15.0,4.0
# From MPC111770
P/2017 Y3 (Leonard),e,27.6332,154.0296,67.3152,9.793662,0.0321578,0.86966144,87.5864,07/23.0/2025,2000,g 16.5,4.0
# From MPEC 2021-P47
C/2018 A3 (ATLAS),e,139.6130,194.3624,86.5229,346.0510,0.0001531,0.99048090,0.0000,01/08.6115/2019,2000,g  8.5,4.0
# From MPC109147
P/2018 A5 (PANSTARRS),e,23.6241,87.7836,359.5582,5.624172,0.0738952,0.52450894,210.8521,07/23.0/2025,2000,g 15.0,4.0
# From MPEC 2024-JU4
C/2018 A6 (Gibbs),e,77.1651,340.4630,264.2625,14.99561,0.0169730,0.79884124,37.4205,07/23.0/2025,2000,g  9.0,4.0
# From MPC114601
P/2018 C1 (Lemmon-Read),e,5.1009,270.1848,235.8170,5.649350,0.0734017,0.53269091,198.5877,07/23.0/2025,2000,g 13.5,4.0
# From MPEC 2022-M88
C/2018 DO4 (Lemmon),e,160.4448,251.3966,176.4301,25.53373,0.0076389,0.90513888,16.5525,07/23.0/2025,2000,g 11.0,4.0
# From MPEC 2021-R75
C/2018 F1 (Grauer),e,46.1804,177.3252,71.4143,216.4597,0.0003095,0.98618369,0.0000,12/10.1076/2018,2000,g 11.5,4.0
# From MPEC 2023-A50
C/2018 F4 (PANSTARRS),e,78.1431,26.5412,263.1936,1712,0.0000139,0.99798507,0.0000,11/30.7813/2019,2000,g 11.0,6.0
# From MPEC 2021-Y10
C/2018 F4-A,e,78.1433,26.5414,263.1904,1668,0.0000145,0.99793212,0.0000,11/30.7694/2019,2000,g 11.0,6.0
# From MPEC 2023-D41
C/2018 F4-B,e,78.1443,26.5409,263.1762,1742,0.0000136,0.99802088,0.0000,11/30.7062/2019,2000,g 11.0,6.0
# From MPC114602
P/2018 H2 (PANSTARRS),e,7.4159,67.9867,119.1573,4.410282,0.1064154,0.53981135,295.8063,07/23.0/2025,2000,g 16.6,2.0
# From MPEC 2021-R75
C/2018 KJ3 (Lemmon),e,136.6196,91.6957,217.5279,684.7664,0.0000550,0.99471767,0.0000,09/08.6145/2019,2000,g 12.2,2.0
# From MPEC 2021-P47
C/2018 L2 (ATLAS),e,67.2207,242.9914,56.3431,234.8117,0.0002739,0.99266737,0.0000,11/29.3536/2018,2000,g 10.0,4.0
# From MPC114603
P/2018 L4 (PANSTARRS),e,26.5965,145.2190,140.4988,4.948932,0.0895235,0.65832749,228.7247,07/23.0/2025,2000,g 17.5,4.0
# From MPEC 2022-YN2
C/2018 N2 (ASASSN),h,11/12.0969/2019,77.4901,24.5305,25.3280,1.002040,3.135896,2000,6.0,4.0
# From MPC114603
P/2018 P4 (PANSTARRS),e,23.0764,353.1594,8.5168,6.696172,0.0568806,0.44895327,139.3727,07/23.0/2025,2000,g 12.0,4.0
# From MPEC 2021-P47
C/2018 P5 (PANSTARRS),e,7.2465,216.2730,132.0319,12.84290,0.0214146,0.64149172,50.1013,07/23.0/2025,2000,g 11.0,4.0
# From MPC118841
C/2018 R3 (Lemmon),e,69.6854,324.3479,112.8159,1807,0.0000128,0.99928900,0.0000,06/07.9797/2019,2000,g  9.5,4.0
# From MPC114603
C/2018 R5 (Lemmon),e,103.6781,171.2755,178.2720,22.97980,0.0089472,0.84169997,21.3408,07/23.0/2025,2000,g 11.5,4.0
# From MPEC 2022-QC6
C/2018 S2 (TESS),e,64.1105,85.1073,290.9573,14.36950,0.0180943,0.61778540,44.3638,07/23.0/2025,2000,g  7.5,4.0
# From MPC184408
C/2018 U1 (Lemmon),h,11/02.0716/2021,108.3258,75.5135,180.3445,1.000044,4.985481,2000,5.0,4.0
# From MPC114604
C/2018 V1 (Machholz-Fujikawa-Iwamoto),h,12/04.2366/2018,144.2058,129.6300,89.5920,1.000465,0.390490,2000,12.0,4.0
# From MPC115884
C/2018 V2 (ATLAS),e,159.1607,357.2332,319.2996,25.25631,0.0077651,0.90132752,18.8731,07/23.0/2025,2000,g 15.0,4.0
# From MPEC 2025-A40
P/2018 VN2 (Leonard),e,18.2566,226.4374,138.9261,4.061112,0.1204305,0.47813189,313.1827,07/23.0/2025,2000,g 15.0,4.0
# From MPEC 2025-A40
A/2018 V3,e,164.9109,308.8252,3.5708,127.0581,0.0006882,0.98953782,0.0000,09/10.4974/2019,2000,g 15.7,2.0
# From MPEC 2022-M21
C/2018 V4 (Africano),e,69.0424,78.2472,0.1080,216.7840,0.0003088,0.98521758,0.0000,03/02.4186/2019,2000,g 12.5,4.0
# From MPEC 2021-P47
P/2018 V5 (Trujillo-Sheppard),e,10.5768,171.2889,260.9058,8.982274,0.0366121,0.47573734,90.8633,07/23.0/2025,2000,g 12.5,4.0
# From MPEC 2021-P47
C/2018 W1 (Catalina),e,83.3914,233.6276,251.1638,21.74396,0.0097207,0.93786365,21.9879,07/23.0/2025,2000,g 15.5,2.0
# From MPEC 2021-P47
C/2018 W2 (Africano),h,09/05.7601/2019,116.5303,181.9926,158.2425,1.000950,1.465347,2000,9.5,4.0
# From MPEC 2023-M14
A/2018 W3,e,104.8375,251.6870,313.8564,698.5554,0.0000534,0.99387121,0.0000,04/13.1715/2021,2000,g 10.7,2.0
# From MPC119996
C/2018 X2 (Fitzsimmons),e,23.1098,340.6253,162.0159,141.0973,0.0005881,0.98504035,0.0000,07/09.9385/2019,2000,g 12.0,4.0
# From MPC114604
C/2018 X3 (PANSTARRS),e,43.4255,78.7971,359.8739,12.41386,0.0225343,0.78289448,53.9544,07/23.0/2025,2000,g 14.5,4.0
# From MPEC 2024-A43
C/2018 Y1 (Iwamoto),e,160.4862,147.3293,357.8681,126.3549,0.0006939,0.98975914,0.0000,02/03.2659/2019,2000,g 11.5,4.0
# From MPC114605
P/2018 Y2 (Africano),e,11.6958,297.1144,162.3979,7.457705,0.0483945,0.48002051,115.7233,07/23.0/2025,2000,g 11.5,4.0
# From MPC114605
P/2019 A1 (PANSTARRS),e,13.7728,312.2093,150.7913,5.112276,0.0852673,0.57032920,210.8728,07/23.0/2025,2000,g 16.0,4.0
# From MPEC 2021-P47
P/2019 A2 (ATLAS),e,14.8742,139.3647,323.9649,5.710361,0.0722285,0.38330929,175.6973,07/23.0/2025,2000,g 10.5,4.0
# From MPEC 2022-M21
P/2019 A3 (PANSTARRS),e,15.3546,31.2485,325.6362,3.145635,0.1766613,0.26765445,89.6176,07/23.0/2025,2000,g 16.0,4.0
# From MPEC 2022-L66
P/2019 A4 (PANSTARRS),e,13.3060,119.3537,343.2506,2.614456,0.2331481,0.08744021,203.1190,07/23.0/2025,2000,g 15.0,4.0
# From MPEC 2021-P47
C/2019 A5 (PANSTARRS),e,67.5518,146.5092,355.8336,21.50791,0.0098811,0.70648309,22.1129,07/23.0/2025,2000,g  9.5,4.0
# From MPC114605
P/2019 A6 (Lemmon-PANSTARRS),e,33.2992,280.1730,156.2541,5.356797,0.0794962,0.64035158,199.9989,07/23.0/2025,2000,g 16.0,4.0
# From MPC118842
C/2019 A9 (PANSTARRS),e,84.4021,278.4721,237.8766,39.32292,0.0039970,0.96372991,8.7441,07/23.0/2025,2000,g 15.0,4.0
# From MPEC 2022-L66
C/2019 B1 (Africano),e,123.4958,290.2301,174.8323,139.8992,0.0005956,0.98853305,0.0000,03/18.2398/2019,2000,g 16.0,4.0
# From MPC115885
P/2019 B2 (Groeller),e,16.9498,175.6419,0.5721,3.929284,0.1265418,0.35768831,286.4483,07/23.0/2025,2000,g 14.5,4.0
# From MPEC 2024-JU4
C/2019 B3 (PANSTARRS),e,66.6079,358.4012,263.9998,3531,0.0000047,0.99806562,0.0000,01/19.5328/2021,2000,g  5.5,4.0
# From MPEC 2021-P47
C/2019 C1 (ATLAS),e,36.0367,212.3667,319.0183,692.8055,0.0000540,0.99052113,0.0000,05/04.6299/2020,2000,g 10.0,4.0
# From MPEC 2022-O08
C/2019 D1 (Flewelling),e,34.0137,231.6700,70.7123,136.2109,0.0006200,0.98831025,0.0000,05/08.6742/2019,2000,g 13.0,4.0
# From MPC185656
C/2019 E3 (ATLAS),e,84.3164,347.1933,280.7201,5463,0.0000024,0.99811229,0.0000,11/15.6500/2023,2000,g  2.5,4.0
# From MPEC 2024-GJ3
C/2019 F1 (ATLAS-Africano),h,06/21.0867/2021,54.2554,38.6643,251.2993,1.000230,3.608281,2000,5.5,4.0
# From MPEC 2025-A40
C/2019 F2 (ATLAS),e,19.3373,175.3431,11.6080,16.55554,0.0146315,0.86479063,31.3871,07/23.0/2025,2000,g 12.0,4.0
# From MPEC 2024-E01
C/2019 G2 (PANSTARRS),e,159.2556,208.2421,82.7951,401.5472,0.0001225,0.99425595,0.0000,12/06.3997/2019,2000,g 15.0,4.0
# From MPEC 2022-VC5
A/2019 G3,e,156.8094,49.8902,161.7201,17.11048,0.0139255,0.83424276,33.7476,07/23.0/2025,2000,g 17.1,2.0
# From MPC114607
P/2019 GG21 (PANSTARRS),e,6.0825,340.5658,208.5907,7.468752,0.0482872,0.47164130,109.4374,07/23.0/2025,2000,g 12.0,4.0
# From MPEC 2022-M21
C/2019 H1 (NEOWISE),e,104.3561,269.3125,19.2367,227.0493,0.0002881,0.99189734,0.0000,04/26.7773/2019,2000,g 15.5,4.0
# From MPEC 2023-A50
C/2019 J1 (Lemmon),e,24.5220,98.2371,167.5604,66.40728,0.0018213,0.96263544,4.1893,07/23.0/2025,2000,g 12.0,4.0
# From MPEC 2021-R75
C/2019 J2 (Palomar),e,105.2090,25.4554,98.5424,160.0352,0.0004868,0.98929087,0.0000,07/21.1851/2019,2000,g 13.0,4.0
# From MPC117071
C/2019 J3 (ATLAS),e,131.2930,270.6561,16.4854,15859,0.0000005,0.99985110,0.0000,08/01.8576/2019,2000,g 13.5,4.0
# From MPEC 2022-M21
C/2019 JU6 (ATLAS),e,148.2969,21.6803,94.7583,12770,0.0000007,0.99984095,0.0000,06/02.9028/2019,2000,g 14.5,4.0
# From MPEC 2022-O08
C/2019 K1 (ATLAS),e,87.0191,73.3124,265.7848,2857,0.0000065,0.99929241,0.0000,02/10.7848/2020,2000,g 10.0,4.0
# From MPC119997
C/2019 K4 (Ye),e,105.2867,180.3071,140.0250,1637,0.0000149,0.99861001,0.0000,06/15.3039/2019,2000,g 12.5,4.0
# From MPEC 2021-P47
C/2019 K5 (Young),e,15.2907,177.2835,175.1406,168.1104,0.0004522,0.98777258,0.0000,06/21.1957/2019,2000,g 13.0,4.0
# From MPEC 2021-P47
C/2019 K6 (PANSTARRS),e,132.3908,42.9765,187.4251,913.8129,0.0000357,0.99571334,0.0000,05/18.4667/2020,2000,g 11.5,4.0
# From MPEC 2024-GJ3
C/2019 K7 (Smith),h,06/17.0644/2020,103.4751,308.0384,27.3520,1.000280,4.473917,2000,6.0,4.0
# From MPEC 2021-R75
C/2019 K8 (ATLAS),e,93.0458,290.9876,85.3738,1644,0.0000148,0.99805430,0.0000,07/20.0639/2019,2000,g 11.5,4.0
# From MPEC 2023-A50
C/2019 L1 (PANSTARRS),e,9.9737,254.4270,50.0067,9.816846,0.0320440,0.70403522,69.7628,07/23.0/2025,2000,g 13.5,4.0
# From MPC115886
C/2019 L2 (NEOWISE),e,152.1441,12.5839,18.8459,25.14777,0.0078155,0.93556165,17.9916,07/23.0/2025,2000,g 16.0,4.0
# From MPEC 2024-GJ3
P/2019 LD2 (ATLAS),e,11.6168,178.6386,116.3792,5.166123,0.0839377,0.13166123,168.0106,07/23.0/2025,2000,g  8.5,4.0
# From MPC185656
C/2019 L3 (ATLAS),h,01/10.1369/2022,48.3461,290.7156,171.7559,1.003183,3.558962,2000,4.5,4.0
# From MPEC 2024-YC7
P/2019 LM4 (Palomar),e,36.4158,72.8877,68.2098,5.702247,0.0723827,0.58620388,161.0408,07/23.0/2025,2000,g  9.5,4.0
# From MPC118095
C/2019 LB7 (Kleyna),e,164.2781,4.0091,336.7821,35.03799,0.0047522,0.92879866,10.9744,07/23.0/2025,2000,g 17.0,4.0
# From MPC118095
C/2019 M3 (ATLAS),e,99.6552,155.0551,87.9353,5041,0.0000028,0.99951898,0.0000,12/31.4598/2018,2000,g 12.2,4.0
# From MPEC 2023-JA2
